{
  "norad_id": 59838,
  "name": "STARLINK-31855",
  "history": [
    {
      "epoch": "2026-03-28T14:39:06.285024Z",
      "apogee_km": 483.8655865890869,
      "perigee_km": 482.0816978221137,
      "latitude_deg": -6.3853149343650134e-06,
      "longitude_deg": 121.42314395767062,
      "height_km": 482.62763454226695,
      "semi_major_axis_km": 6861.1106422056,
      "eccentricity": 0.00013,
      "inclination_deg": 43.0036,
      "raan_deg": 167.2278,
      "arg_perigee_deg": 277.9285,
      "mean_anomaly_deg": 82.1419,
      "mean_motion_rev_day": 15.27605199
    }
  ]
}